STARLINK-34113          
1 64010U 25101S   26068.17653434  .00017990  00000+0  66188-3 0  9992
2 64010  43.0092   1.1306 0002648 277.4839  82.5712 15.27569228 46970
REAL                    
1 64875U 25154G   26068.72233414  .00022901  00000+0  82904-3 0  9994
2 64875  97.4133 137.2581 0001853 118.5876 241.5550 15.28408058 34830
